STARLINK-30399          
1 57951U 23148S   26068.17649166 -.00001068  00000+0 -23928-4 0  9991
2 57951  53.1624  26.6571 0001345 108.3132 251.8015 15.30189213138342
TRANSPORTER-12 OBJECT AZ
1 62656U 25009AZ  26068.71026235  .00016057  00000+0  54903-3 0  9991
2 62656  97.3981 151.9913 0000987  45.3581 314.7740 15.30349724 63792
